start=new Date('2021-11-16T00:00:00.000Z').valueOf();
sats=[{"GP_ID":"189808499","DECAY_DATE":null,"ECCENTRICITY":"0.00018740","ELEMENT_SET_NO":"999","OBJECT_TYPE":"PAYLOAD","BSTAR":"0.00000553650000","INCLINATION":"53.0548","EPOCH":"2021-11-15T13:13:30.092736","TLE_LINE1":"1 45707U 20035BC  21319.55104274 -.00000199  00000-0  55365-5 0  9996","TLE_LINE2":"2 45707  53.0548 267.6951 0001874  68.8815 291.2375 15.06398420 81749","CENTER_NAME":"EARTH","REV_AT_EPOCH":"8174","LAUNCH_DATE":"2020-06-04","TIME_SYSTEM":"UTC","OBJECT_ID":"2020-035BC","COUNTRY_CODE":"US","MEAN_ANOMALY":"291.2375","SITE":"AFETR","MEAN_ELEMENT_THEORY":"SGP4","RA_OF_ASC_NODE":"267.6951","ARG_OF_PERICENTER":"68.8815","APOAPSIS":"548.516","RCS_SIZE":"LARGE","FILE":"3215681","MEAN_MOTION_DDOT":"0.0000000000000","PERIOD":"95.592","CLASSIFICATION_TYPE":"U","NORAD_CAT_ID":"45707","MEAN_MOTION_DOT":"-0.00000199","SEMIMAJOR_AXIS":"6925.353","MEAN_MOTION":"15.06398420","REF_FRAME":"TEME","OBJECT_NAME":"STARLINK-1412","EPHEMERIS_TYPE":"0","PERIAPSIS":"545.921"},{"APOAPSIS":"548.405","RA_OF_ASC_NODE":"267.5180","ARG_OF_PERICENTER":"68.8912","COUNTRY_CODE":"US","MEAN_ELEMENT_THEORY":"SGP4","SITE":"AFETR","MEAN_ANOMALY":"291.2262","FILE":"3215681","MEAN_MOTION_DDOT":"0.0000000000000","RCS_SIZE":"LARGE","MEAN_MOTION":"15.06402275","SEMIMAJOR_AXIS":"6925.342","PERIOD":"95.592","NORAD_CAT_ID":"45708","CLASSIFICATION_TYPE":"U","MEAN_MOTION_DOT":"-0.00000228","PERIAPSIS":"546.009","EPHEMERIS_TYPE":"0","OBJECT_NAME":"STARLINK-1418","REF_FRAME":"TEME","GP_ID":"189807247","OBJECT_TYPE":"PAYLOAD","BSTAR":"0.00000357380000","EPOCH":"2021-11-15T14:11:52.743552","INCLINATION":"53.0538","ELEMENT_SET_NO":"999","DECAY_DATE":null,"ECCENTRICITY":"0.00017300","REV_AT_EPOCH":"8175","CENTER_NAME":"EARTH","TLE_LINE1":"1 45708U 20035BD  21319.59158268 -.00000228  00000-0  35738-5 0  9998","TLE_LINE2":"2 45708  53.0538 267.5180 0001730  68.8912 291.2262 15.06402275 81751","OBJECT_ID":"2020-035BD","TIME_SYSTEM":"UTC","LAUNCH_DATE":"2020-06-04"},{"LAUNCH_DATE":"2020-06-04","OBJECT_ID":"2020-035BE","TIME_SYSTEM":"UTC","TLE_LINE1":"1 45709U 20035BE  21319.56209790  .00000087  00000-0  24760-4 0  9997","TLE_LINE2":"2 45709  53.0536 267.6362 0001689  70.2129 289.9042 15.06400360 81701","CENTER_NAME":"EARTH","REV_AT_EPOCH":"8170","DECAY_DATE":null,"ECCENTRICITY":"0.00016890","ELEMENT_SET_NO":"999","BSTAR":"0.00002476000000","OBJECT_TYPE":"PAYLOAD","EPOCH":"2021-11-15T13:29:25.258560","INCLINATION":"53.0536","GP_ID":"189807497","REF_FRAME":"TEME","OBJECT_NAME":"STARLINK-1421","EPHEMERIS_TYPE":"0","PERIAPSIS":"546.043","NORAD_CAT_ID":"45709","PERIOD":"95.592","CLASSIFICATION_TYPE":"U","MEAN_MOTION_DOT":"0.00000087","SEMIMAJOR_AXIS":"6925.347","MEAN_MOTION":"15.06400360","RCS_SIZE":"LARGE","FILE":"3215681","MEAN_MOTION_DDOT":"0.0000000000000","COUNTRY_CODE":"US","MEAN_ANOMALY":"289.9042","SITE":"AFETR","MEAN_ELEMENT_THEORY":"SGP4","RA_OF_ASC_NODE":"267.6362","ARG_OF_PERICENTER":"70.2129","APOAPSIS":"548.382"},{"MEAN_MOTION":"15.06400273","CLASSIFICATION_TYPE":"U","PERIOD":"95.592","NORAD_CAT_ID":"45710","MEAN_MOTION_DOT":"-0.00000173","SEMIMAJOR_AXIS":"6925.348","EPHEMERIS_TYPE":"0","OBJECT_NAME":"STARLINK-1423","PERIAPSIS":"546.065","REF_FRAME":"TEME","APOAPSIS":"548.360","COUNTRY_CODE":"US","MEAN_ANOMALY":"288.9270","SITE":"AFETR","MEAN_ELEMENT_THEORY":"SGP4","RA_OF_ASC_NODE":"267.6657","ARG_OF_PERICENTER":"71.1898","FILE":"3215819","MEAN_MOTION_DDOT":"0.0000000000000","RCS_SIZE":"LARGE","CENTER_NAME":"EARTH","REV_AT_EPOCH":"8133","TLE_LINE1":"1 45710U 20035BF  21319.55840977 -.00000173  00000-0  72786-5 0  9995","TLE_LINE2":"2 45710  53.0534 267.6657 0001657  71.1898 288.9270 15.06400273 81330","TIME_SYSTEM":"UTC","OBJECT_ID":"2020-035BF","LAUNCH_DATE":"2020-06-04","GP_ID":"189814602","BSTAR":"0.00000727860000","OBJECT_TYPE":"PAYLOAD","INCLINATION":"53.0534","EPOCH":"2021-11-15T13:24:06.604128","DECAY_DATE":null,"ECCENTRICITY":"0.00016570","ELEMENT_SET_NO":"999"},{"BSTAR":"0.00009997000000","OBJECT_TYPE":"PAYLOAD","INCLINATION":"53.0540","EPOCH":"2021-11-15T20:55:16.356576","DECAY_DATE":null,"ECCENTRICITY":"0.00016080","ELEMENT_SET_NO":"999","GP_ID":"189835789","OBJECT_ID":"2020-035BG","TIME_SYSTEM":"UTC","LAUNCH_DATE":"2020-06-04","CENTER_NAME":"EARTH","REV_AT_EPOCH":"8178","TLE_LINE1":"1 45711U 20035BG  21319.87171709  .00001208  00000-0  99970-4 0  9993","TLE_LINE2":"2 45711  53.0540 266.2615 0001608  69.7378 290.3784 15.06399732 81782","FILE":"3215928","MEAN_MOTION_DDOT":"0.0000000000000","RCS_SIZE":"LARGE","APOAPSIS":"548.328","COUNTRY_CODE":"US","MEAN_ANOMALY":"290.3784","SITE":"AFETR","MEAN_ELEMENT_THEORY":"SGP4","RA_OF_ASC_NODE":"266.2615","ARG_OF_PERICENTER":"69.7378","EPHEMERIS_TYPE":"0","OBJECT_NAME":"STARLINK-1433","PERIAPSIS":"546.101","REF_FRAME":"TEME","MEAN_MOTION":"15.06399732","CLASSIFICATION_TYPE":"U","PERIOD":"95.592","NORAD_CAT_ID":"45711","MEAN_MOTION_DOT":"0.00001208","SEMIMAJOR_AXIS":"6925.349"},{"EPHEMERIS_TYPE":"0","OBJECT_NAME":"STARLINK-1434","PERIAPSIS":"546.032","REF_FRAME":"TEME","MEAN_MOTION":"15.06394804","CLASSIFICATION_TYPE":"U","PERIOD":"95.592","NORAD_CAT_ID":"45712","MEAN_MOTION_DOT":"0.00002228","SEMIMAJOR_AXIS":"6925.364","FILE":"3215681","MEAN_MOTION_DDOT":"0.0000000000000","RCS_SIZE":"LARGE","APOAPSIS":"548.427","COUNTRY_CODE":"US","SITE":"AFETR","MEAN_ELEMENT_THEORY":"SGP4","MEAN_ANOMALY":"290.4038","RA_OF_ASC_NODE":"268.6573","ARG_OF_PERICENTER":"69.7137","TIME_SYSTEM":"UTC","OBJECT_ID":"2020-035BH","LAUNCH_DATE":"2020-06-04","CENTER_NAME":"EARTH","REV_AT_EPOCH":"8171","TLE_LINE1":"1 45712U 20035BH  21319.33727437  .00002228  00000-0  16843-3 0  9990","TLE_LINE2":"2 45712  53.0548 268.6573 0001729  69.7137 290.4038 15.06394804 81718","BSTAR":"0.00016843000000","OBJECT_TYPE":"PAYLOAD","INCLINATION":"53.0548","EPOCH":"2021-11-15T08:05:40.505568","DECAY_DATE":null,"ECCENTRICITY":"0.00017290","ELEMENT_SET_NO":"999","GP_ID":"189806747"},{"REF_FRAME":"TEME","EPHEMERIS_TYPE":"0","OBJECT_NAME":"STARLINK-1436","PERIAPSIS":"546.114","NORAD_CAT_ID":"45713","PERIOD":"95.593","CLASSIFICATION_TYPE":"U","MEAN_MOTION_DOT":"0.00002016","SEMIMAJOR_AXIS":"6925.368","MEAN_MOTION":"15.06393727","RCS_SIZE":"LARGE","FILE":"3215928","MEAN_MOTION_DDOT":"0.0000000000000","COUNTRY_CODE":"US","MEAN_ELEMENT_THEORY":"SGP4","SITE":"AFETR","MEAN_ANOMALY":"285.9393","RA_OF_ASC_NODE":"287.3784","ARG_OF_PERICENTER":"74.1774","APOAPSIS":"548.351","LAUNCH_DATE":"2020-06-04","OBJECT_ID":"2020-035BJ","TIME_SYSTEM":"UTC","TLE_LINE1":"1 45713U 20035BJ  21319.62292461  .00002016  00000-0  15423-3 0  9995","TLE_LINE2":"2 45713  53.0538 287.3784 0001615  74.1774 285.9393 15.06393727 81469","CENTER_NAME":"EARTH","REV_AT_EPOCH":"8146","DECAY_DATE":null,"ECCENTRICITY":"0.00016150","ELEMENT_SET_NO":"999","OBJECT_TYPE":"PAYLOAD","BSTAR":"0.00015423000000","EPOCH":"2021-11-15T14:57:00.686304","INCLINATION":"53.0538","GP_ID":"189836291"},{"TLE_LINE2":"2 45714  53.0543 268.6121 0001778  69.9597 290.1583 15.06395355 81714","TLE_LINE1":"1 45714U 20035BK  21319.34831834  .00000060  00000-0  22923-4 0  9999","REV_AT_EPOCH":"8171","CENTER_NAME":"EARTH","LAUNCH_DATE":"2020-06-04","TIME_SYSTEM":"UTC","OBJECT_ID":"2020-035BK","GP_ID":"189807749","ELEMENT_SET_NO":"999","ECCENTRICITY":"0.00017780","DECAY_DATE":null,"EPOCH":"2021-11-15T08:21:34.704576","INCLINATION":"53.0543","OBJECT_TYPE":"PAYLOAD","BSTAR":"0.00002292300000","SEMIMAJOR_AXIS":"6925.363","MEAN_MOTION_DOT":"0.00000060","PERIOD":"95.592","NORAD_CAT_ID":"45714","CLASSIFICATION_TYPE":"U","MEAN_MOTION":"15.06395355","REF_FRAME":"TEME","PERIAPSIS":"545.996","EPHEMERIS_TYPE":"0","OBJECT_NAME":"STARLINK-1437","ARG_OF_PERICENTER":"69.9597","RA_OF_ASC_NODE":"268.6121","MEAN_ANOMALY":"290.1583","SITE":"AFETR","MEAN_ELEMENT_THEORY":"SGP4","COUNTRY_CODE":"US","APOAPSIS":"548.459","RCS_SIZE":"LARGE","MEAN_MOTION_DDOT":"0.0000000000000","FILE":"3215681"},{"RCS_SIZE":"LARGE","MEAN_MOTION_DDOT":"0.0000000000000","FILE":"3215928","MEAN_ELEMENT_THEORY":"SGP4","SITE":"AFETR","MEAN_ANOMALY":"321.4970","COUNTRY_CODE":"US","ARG_OF_PERICENTER":"38.6410","RA_OF_ASC_NODE":"114.6591","APOAPSIS":"362.954","REF_FRAME":"TEME","OBJECT_NAME":"STARLINK-1439","EPHEMERIS_TYPE":"0","PERIAPSIS":"356.082","MEAN_MOTION_DOT":"0.00063435","PERIOD":"91.732","CLASSIFICATION_TYPE":"U","NORAD_CAT_ID":"45716","SEMIMAJOR_AXIS":"6737.653","MEAN_MOTION":"15.69783658","ECCENTRICITY":"0.00051000","DECAY_DATE":null,"ELEMENT_SET_NO":"999","INCLINATION":"53.0000","EPOCH":"2021-11-15T16:13:43.775040","BSTAR":"0.00052249000000","OBJECT_TYPE":"PAYLOAD","GP_ID":"189835290","LAUNCH_DATE":"2020-06-04","TIME_SYSTEM":"UTC","OBJECT_ID":"2020-035BM","TLE_LINE2":"2 45716  53.0000 114.6591 0005100  38.6410 321.4970 15.69783658 83889","TLE_LINE1":"1 45716U 20035BM  21319.67620110  .00063435  00000-0  52249-3 0  9998","CENTER_NAME":"EARTH","REV_AT_EPOCH":"8388"},{"REF_FRAME":"TEME","OBJECT_NAME":"STARLINK-1461","EPHEMERIS_TYPE":"0","PERIAPSIS":"546.295","MEAN_MOTION_DOT":"0.00000920","NORAD_CAT_ID":"45730","PERIOD":"95.592","CLASSIFICATION_TYPE":"U","SEMIMAJOR_AXIS":"6925.319","MEAN_MOTION":"15.06409506","RCS_SIZE":"LARGE","MEAN_MOTION_DDOT":"0.0000000000000","FILE":"3215928","MEAN_ELEMENT_THEORY":"SGP4","SITE":"AFETR","MEAN_ANOMALY":"265.0587","COUNTRY_CODE":"US","ARG_OF_PERICENTER":"95.0549","RA_OF_ASC_NODE":"106.1601","APOAPSIS":"548.074","LAUNCH_DATE":"2020-06-13","OBJECT_ID":"2020-038A","TIME_SYSTEM":"UTC","TLE_LINE2":"2 45730  53.0537 106.1601 0001285  95.0549 265.0587 15.06409506 78843","TLE_LINE1":"1 45730U 20038A   21319.89014747  .00000920  00000-0  80614-4 0  9992","CENTER_NAME":"EARTH","REV_AT_EPOCH":"7884","ECCENTRICITY":"0.00012850","DECAY_DATE":null,"ELEMENT_SET_NO":"999","EPOCH":"2021-11-15T21:21:48.741408","INCLINATION":"53.0537","OBJECT_TYPE":"PAYLOAD","BSTAR":"0.00008061400000","GP_ID":"189836040"}];
